[{"OBJECT_NAME":"MBZ-SAT","OBJECT_ID":"2025-009T","EPOCH":"2026-03-09T17:04:51.088224","MEAN_MOTION":15.18507845,"ECCENTRICITY":0.00021634,"INCLINATION":97.403,"RA_OF_ASC_NODE":149.1701,"ARG_OF_PERICENTER":323.4829,"MEAN_ANOMALY":36.6257,"EPHEMERIS_TYPE":0,"CLASSIFICATION_TYPE":"U","NORAD_CAT_ID":62626,"ELEMENT_SET_NO":999,"REV_AT_EPOCH":6359,"BSTAR":3.31466e-7,"MEAN_MOTION_DOT":-5.9e-7,"MEAN_MOTION_DDOT":0},{"OBJECT_NAME":"SCS-01 C","OBJECT_ID":"2025-100C","EPOCH":"2026-03-09T21:59:59.204544","MEAN_MOTION":15.20980224,"ECCENTRICITY":0.00246678,"INCLINATION":97.3736,"RA_OF_ASC_NODE":143.8302,"ARG_OF_PERICENTER":335.341,"MEAN_ANOMALY":24.6645,"EPHEMERIS_TYPE":0,"CLASSIFICATION_TYPE":"U","NORAD_CAT_ID":63984,"ELEMENT_SET_NO":999,"REV_AT_EPOCH":4553,"BSTAR":0.00052394566,"MEAN_MOTION_DOT":0.00011645,"MEAN_MOTION_DDOT":0}]
